{"type": "FeatureCollection", "features": [ {"type": "Feature", "properties": {"norad_id": 39620, "name": "COSMOS 2492 (754)", "group": "gnss", "lat": 64.64769335823902, "lon": 65.49118868202353, "alt_km": 19152.676581543386, "timestamp": "2025-12-02T08:59:32.956565+00:00", "meta": {"OBJECT_NAME": "COSMOS 2492 (754)", "OBJECT_ID": "2014-012A", "EPOCH": "2025-12-01T18:43:02.781984", "MEAN_MOTION": 2.13103082, "ECCENTRICITY": 0.0014157, "INCLINATION": 65.4139, "RA_OF_ASC_NODE": 320.6425, "ARG_OF_PERICENTER": 310.9, "MEAN_ANOMALY": 48.9873, "EPHEMERIS_TYPE": 0, "CLASSIFICATION_TYPE": "U", "NORAD_CAT_ID": 39620, "ELEMENT_SET_NO": 999, "REV_AT_EPOCH": 9103, "BSTAR": 0, "MEAN_MOTION_DOT": -2.9e-07, "MEAN_MOTION_DDOT": 0}, "tle": {"line1": "1 39620U 14012A   25335.77989331 -.00000029  00000+0  00000+0 0  9993", "line2": "2 39620  65.4139 320.6425 0014157 310.9000  48.9873  2.13103082 91035"}}, "geometry": {"type": "Point", "coordinates": [65.49118868202353, 64.64769335823902]}}, {"type": "Feature", "properties": {"norad_id": 39635, "name": "IRNSS-1B", "group": "gnss", "lat": 8.343279453464248, "lon": -100.79524106987398, "alt_km": 35857.09171123291, "timestamp": "2025-12-02T08:59:32.956577+00:00", "meta": {"OBJECT_NAME": "IRNSS-1B", "OBJECT_ID": "2014-017A", "EPOCH": "2025-11-28T20:06:06.175008", "MEAN_MOTION": 1.00274122, "ECCENTRICITY": 0.00176916, "INCLINATION": 28.849, "RA_OF_ASC_NODE": 243.8302, "ARG_OF_PERICENTER": 183.8746, "MEAN_ANOMALY": 356.8041, "EPHEMERIS_TYPE": 0, "CLASSIFICATION_TYPE": "U", "NORAD_CAT_ID": 39635, "ELEMENT_SET_NO": 999, "REV_AT_EPOCH": 4278, "BSTAR": 0, "MEAN_MOTION_DOT": 1.13e-06, "MEAN_MOTION_DDOT": 0}, "tle": {"line1": "1 39635U 14017A   25332.83757147  .00000113  00000+0  00000+0 0  9999", "line2": "2 39635  28.8490 243.8302 0017691 183.8746 356.8041  1.00274122 42789"}}, "geometry": {"type": "Point", "coordinates": [-100.79524106987398, 8.343279453464248]}}, {"type": "Feature", "properties": {"norad_id": 39727, "name": "LUCH 5V (SDCM/PRN 141)", "group": "gnss", "lat": -3.5371025739093005, "lon": -58.94441382924418, "alt_km": 35770.646250016376, "timestamp": "2025-12-02T08:59:32.956589+00:00", "meta": {"OBJECT_NAME": "LUCH 5V (SDCM/PRN 141)", "OBJECT_ID": "2014-023A", "EPOCH": "2025-12-01T19:24:04.671360", "MEAN_MOTION": 1.00272515, "ECCENTRICITY": 0.0004401, "INCLINATION": 4.6396, "RA_OF_ASC_NODE": 71.6314, "ARG_OF_PERICENTER": 197.4977, "MEAN_ANOMALY": 187.5853, "EPHEMERIS_TYPE": 0, "CLASSIFICATION_TYPE": "U", "NORAD_CAT_ID": 39727, "ELEMENT_SET_NO": 999, "REV_AT_EPOCH": 4238, "BSTAR": 0, "MEAN_MOTION_DOT": -2.49e-06, "MEAN_MOTION_DDOT": 0}, "tle": {"line1": "1 39727U 14023A   25335.80838740 -.00000249  00000+0  00000+0 0  9998", "line2": "2 39727   4.6396  71.6314 0004401 197.4977 187.5853  1.00272515 42380"}}, "geometry": {"type": "Point", "coordinates": [-58.94441382924418, -3.5371025739093005]}}, {"type": "Feature", "properties": {"norad_id": 39741, "name": "GPS BIIF-6  (PRN 06)", "group": "gnss", "lat": -52.90192129960354, "lon": -140.01350032543385, "alt_km": 20144.39159391102, "timestamp": "2025-12-02T08:59:32.956600+00:00", "meta": {"OBJECT_NAME": "GPS BIIF-6  (PRN 06)", "OBJECT_ID": "2014-026A", "EPOCH": "2025-12-02T00:33:52.471008", "MEAN_MOTION": 2.00561967, "ECCENTRICITY": 0.0038874, "INCLINATION": 56.5877, "RA_OF_ASC_NODE": 339.1935, "ARG_OF_PERICENTER": 318.1074, "MEAN_ANOMALY": 41.6257, "EPHEMERIS_TYPE": 0, "CLASSIFICATION_TYPE": "U", "NORAD_CAT_ID": 39741, "ELEMENT_SET_NO": 999, "REV_AT_EPOCH": 8458, "BSTAR": 0, "MEAN_MOTION_DOT": -5.7e-07, "MEAN_MOTION_DDOT": 0}, "tle": {"line1": "1 39741U 14026A   25336.02352397 -.00000057  00000+0  00000+0 0  9998", "line2": "2 39741  56.5877 339.1935 0038874 318.1074  41.6257  2.00561967 84587"}}, "geometry": {"type": "Point", "coordinates": [-140.01350032543385, -52.90192129960354]}}, {"type": "Feature", "properties": {"norad_id": 40001, "name": "COSMOS 2500 (755)", "group": "gnss", "lat": -32.173230600291554, "lon": -56.415001055836974, "alt_km": 19139.341862827132, "timestamp": "2025-12-02T08:59:32.956611+00:00", "meta": {"OBJECT_NAME": "COSMOS 2500 (755)", "OBJECT_ID": "2014-032A", "EPOCH": "2025-12-01T22:51:13.641408", "MEAN_MOTION": 2.13105853, "ECCENTRICITY": 0.0008298, "INCLINATION": 65.3495, "RA_OF_ASC_NODE": 320.3998, "ARG_OF_PERICENTER": 219.081, "MEAN_ANOMALY": 140.8682, "EPHEMERIS_TYPE": 0, "CLASSIFICATION_TYPE": "U", "NORAD_CAT_ID": 40001, "ELEMENT_SET_NO": 999, "REV_AT_EPOCH": 8925, "BSTAR": 0, "MEAN_MOTION_DOT": -3.1e-07, "MEAN_MOTION_DDOT": 0}, "tle": {"line1": "1 40001U 14032A   25335.95224122 -.00000031  00000+0  00000+0 0  9993", "line2": "2 40001  65.3495 320.3998 0008298 219.0810 140.8682  2.13105853 89252"}}, "geometry": {"type": "Point", "coordinates": [-56.415001055836974, -32.173230600291554]}}, {"type": "Feature", "properties": {"norad_id": 40105, "name": "GPS BIIF-7  (PRN 09)", "group": "gnss", "lat": -8.73053475053727, "lon": -77.58189156306817, "alt_km": 20154.07216718672, "timestamp": "2025-12-02T08:59:32.956623+00:00", "meta": {"OBJECT_NAME": "GPS BIIF-7  (PRN 09)", "OBJECT_ID": "2014-045A", "EPOCH": "2025-12-01T02:44:59.047584", "MEAN_MOTION": 2.00571745, "ECCENTRICITY": 0.0032948, "INCLINATION": 55.2216, "RA_OF_ASC_NODE": 96.3629, "ARG_OF_PERICENTER": 119.5842, "MEAN_ANOMALY": 240.7262, "EPHEMERIS_TYPE": 0, "CLASSIFICATION_TYPE": "U", "NORAD_CAT_ID": 40105, "ELEMENT_SET_NO": 999, "REV_AT_EPOCH": 8210, "BSTAR": 0, "MEAN_MOTION_DOT": 1.8e-07, "MEAN_MOTION_DDOT": 0}, "tle": {"line1": "1 40105U 14045A   25335.11457231  .00000018  00000+0  00000+0 0  9993", "line2": "2 40105  55.2216  96.3629 0032948 119.5842 240.7262  2.00571745 82109"}}, "geometry": {"type": "Point", "coordinates": [-77.58189156306817, -8.73053475053727]}}, {"type": "Feature", "properties": {"norad_id": 40128, "name": "GSAT0201 (GALILEO 5)", "group": "gnss", "lat": 23.89789809023118, "lon": 78.89359021448361, "alt_km": 17281.710885932036, "timestamp": "2025-12-02T08:59:32.956636+00:00", "meta": {"OBJECT_NAME": "GSAT0201 (GALILEO 5)", "OBJECT_ID": "2014-050A", "EPOCH": "2025-11-28T09:00:06.762528", "MEAN_MOTION": 1.85519533, "ECCENTRICITY": 0.16464881, "INCLINATION": 49.0938, "RA_OF_ASC_NODE": 281.6492, "ARG_OF_PERICENTER": 171.7362, "MEAN_ANOMALY": 191.3851, "EPHEMERIS_TYPE": 0, "CLASSIFICATION_TYPE": "U", "NORAD_CAT_ID": 40128, "ELEMENT_SET_NO": 999, "REV_AT_EPOCH": 7459, "BSTAR": 0, "MEAN_MOTION_DOT": -4.8e-07, "MEAN_MOTION_DDOT": 0}, "tle": {"line1": "1 40128U 14050A   25332.37507827 -.00000048  00000+0  00000+0 0  9990", "line2": "2 40128  49.0938 281.6492 1646488 171.7362 191.3851  1.85519533 74599"}}, "geometry": {"type": "Point", "coordinates": [78.89359021448361, 23.89789809023118]}}, {"type": "Feature", "properties": {"norad_id": 40129, "name": "GSAT0202 (GALILEO 6)", "group": "gnss", "lat": -10.82639332674182, "lon": -88.98384540767516, "alt_km": 26165.090649356236, "timestamp": "2025-12-02T08:59:32.956649+00:00", "meta": {"OBJECT_NAME": "GSAT0202 (GALILEO 6)", "OBJECT_ID": "2014-050B", "EPOCH": "2025-11-29T17:01:27.924672", "MEAN_MOTION": 1.85520097, "ECCENTRICITY": 0.1647266, "INCLINATION": 49.1079, "RA_OF_ASC_NODE": 280.6784, "ARG_OF_PERICENTER": 172.5408, "MEAN_ANOMALY": 190.2825, "EPHEMERIS_TYPE": 0, "CLASSIFICATION_TYPE": "U", "NORAD_CAT_ID": 40129, "ELEMENT_SET_NO": 999, "REV_AT_EPOCH": 7678, "BSTAR": 0, "MEAN_MOTION_DOT": -5.4e-07, "MEAN_MOTION_DDOT": 0}, "tle": {"line1": "1 40129U 14050B   25333.70935098 -.00000054  00000+0  00000+0 0  9991", "line2": "2 40129  49.1079 280.6784 1647266 172.5408 190.2825  1.85520097 76784"}}, "geometry": {"type": "Point", "coordinates": [-88.98384540767516, -10.82639332674182]}}, {"type": "Feature", "properties": {"norad_id": 40269, "name": "IRNSS-1C", "group": "gnss", "lat": -1.715280590871703, "lon": -70.81349386979444, "alt_km": 35860.33226481984, "timestamp": "2025-12-02T08:59:32.956661+00:00", "meta": {"OBJECT_NAME": "IRNSS-1C", "OBJECT_ID": "2014-061A", "EPOCH": "2025-12-01T21:03:25.155072", "MEAN_MOTION": 1.00269464, "ECCENTRICITY": 0.0017868, "INCLINATION": 6.0133, "RA_OF_ASC_NODE": 92.8381, "ARG_OF_PERICENTER": 2.8592, "MEAN_ANOMALY": 14.1233, "EPHEMERIS_TYPE": 0, "CLASSIFICATION_TYPE": "U", "NORAD_CAT_ID": 40269, "ELEMENT_SET_NO": 999, "REV_AT_EPOCH": 4071, "BSTAR": 0, "MEAN_MOTION_DOT": -1.4e-06, "MEAN_MOTION_DDOT": 0}, "tle": {"line1": "1 40269U 14061A   25335.87737448 -.00000140  00000+0  00000+0 0  9993", "line2": "2 40269   6.0133  92.8381 0017868   2.8592  14.1233  1.00269464 40711"}}, "geometry": {"type": "Point", "coordinates": [-70.81349386979444, -1.715280590871703]}}, {"type": "Feature", "properties": {"norad_id": 40294, "name": "GPS BIIF-8  (PRN 03)", "group": "gnss", "lat": -55.84708428554035, "lon": -35.64751751072492, "alt_km": 20328.687202109257, "timestamp": "2025-12-02T08:59:32.956672+00:00", "meta": {"OBJECT_NAME": "GPS BIIF-8  (PRN 03)", "OBJECT_ID": "2014-068A", "EPOCH": "2025-12-01T11:46:15.009600", "MEAN_MOTION": 2.00563998, "ECCENTRICITY": 0.0060828, "INCLINATION": 56.849, "RA_OF_ASC_NODE": 38.5813, "ARG_OF_PERICENTER": 69.4379, "MEAN_ANOMALY": 291.2622, "EPHEMERIS_TYPE": 0, "CLASSIFICATION_TYPE": "U", "NORAD_CAT_ID": 40294, "ELEMENT_SET_NO": 999, "REV_AT_EPOCH": 8124, "BSTAR": 0, "MEAN_MOTION_DOT": -6.4e-07, "MEAN_MOTION_DDOT": 0}, "tle": {"line1": "1 40294U 14068A   25335.49045150 -.00000064  00000+0  00000+0 0  9993", "line2": "2 40294  56.8490  38.5813 0060828  69.4379 291.2622  2.00563998 81244"}}, "geometry": {"type": "Point", "coordinates": [-35.64751751072492, -55.84708428554035]}}]}